{
  "type": "FeatureCollection",
  "features": [
    {
      "type": "Feature",
      "properties": {
        "OBJECTID": 1,
        "name": "Rhein"
      },
      "geometry": {
        "type": "LineString",
        "coordinates": [
          [6.981468, 50.8308158],
          [6.9806255, 50.8321111],
          [6.9792522, 50.8350113],
          [6.9792091, 50.8363196],
          [6.9791664, 50.8376131],
          [6.9793134, 50.8396055],
          [6.9794058, 50.8398448],
          [6.9799066, 50.8411242],
          [6.9799637, 50.8412702],
          [6.9810538, 50.8428149],
          [6.9833721, 50.844632],
          [6.9872345, 50.8469353],
          [6.9875833, 50.847116],
          [6.9941009, 50.8494281],
          [7.0004295, 50.8510359],
          [7.0019973, 50.8515685],
          [7.0071043, 50.8539798],
          [7.0099796, 50.8561201],
          [7.0111116, 50.8569873],
          [7.0182623, 50.8626215],
          [7.0187428, 50.8630525],
          [7.0199491, 50.8641347],
          [7.0233692, 50.8669282],
          [7.0287336, 50.8696366],
          [7.030077, 50.8702676],
          [7.0325101, 50.8710991],
          [7.039162, 50.8729948],
          [7.0427101, 50.8743498],
          [7.0471872, 50.8762715],
          [7.0509208, 50.878844],
          [7.051909, 50.8809788],
          [7.0519937, 50.8821745],
          [7.051865, 50.8850986],
          [7.0495475, 50.8884286],
          [7.0484757, 50.8896592],
          [7.0471872, 50.8905132],
          [7.0433248, 50.8924893],
          [7.0397762, 50.8939634],
          [7.0368496, 50.8946395],
          [7.0335865, 50.8947555],
          [7.0310489, 50.8947274],
          [7.0294193, 50.8947094],
          [7.02394, 50.8945769],
          [7.0223271, 50.8945317],
          [7.013327, 50.8940864],
          [7.0081814, 50.8945633],
          [7.0030273, 50.8951421],
          [6.9966329, 50.8968745],
          [6.994633, 50.8975212],
          [6.9901793, 50.8993888],
          [6.9886936, 50.9002307],
          [6.9836553, 50.9034258],
          [6.9821287, 50.9050303],
          [6.9771687, 50.9110986],
          [6.9750036, 50.9141403],
          [6.9734417, 50.9171735],
          [6.9732413, 50.9175476],
          [6.9721431, 50.9196126],
          [6.9688667, 50.9267203],
          [6.9683645, 50.9282693],
          [6.9675889, 50.9307509],
          [6.9662073, 50.934439],
          [6.9657213, 50.9359528],
          [6.965639, 50.936408],
          [6.9655815, 50.9368905],
          [6.9657066, 50.9409023],
          [6.965736, 50.941441],
          [6.9657944, 50.9419161],
          [6.9665196, 50.9460021],
          [6.9677423, 50.9483312],
          [6.9689388, 50.9499887],
          [6.972073, 50.9530315],
          [6.9733479, 50.9538181],
          [6.9749337, 50.9545824],
          [6.9752209, 50.9547208],
          [6.9796894, 50.9568637],
          [6.9855194, 50.9585509],
          [6.9893373, 50.9600342],
          [6.9954132, 50.9632883],
          [6.9960478, 50.9640873],
          [6.9964183, 50.9646832],
          [6.9979204, 50.9676832],
          [6.999122, 50.9700345],
          [6.9991649, 50.97171],
          [6.9989429, 50.9732607],
          [6.998022, 50.9751401],
          [6.9958856, 50.9780796],
          [6.9936288, 50.9794652],
          [6.9914854, 50.9807407],
          [6.9896806, 50.9814646],
          [6.9871807, 50.9822092],
          [6.9788561, 50.9846887],
          [6.976806, 50.9853551],
          [6.9718279, 50.9871381],
          [6.9673443, 50.9898492],
          [6.9662489, 50.9907309],
          [6.9638456, 50.9932971],
          [6.9625152, 50.9969165],
          [6.9622285, 50.9981945],
          [6.9622577, 50.9989692],
          [6.9626011, 51.002156],
          [6.9639314, 51.0051536],
          [6.9654528, 51.0069284],
          [6.9662489, 51.007719],
          [6.9694675, 51.0113102],
          [6.9723133, 51.0148096],
          [6.9734171, 51.0163638],
          [6.9741426, 51.0183182],
          [6.9743599, 51.0202736],
          [6.9743169, 51.0221633],
          [6.9736394, 51.0238032],
          [6.9724716, 51.0257535],
          [6.9685663, 51.0294783],
          [6.9655943, 51.0312643],
          [6.9604841, 51.0339738],
          [6.9545777, 51.0369466],
          [6.9447751, 51.0417084],
          [6.943297, 51.0424114],
          [6.9365663, 51.0457414],
          [6.909374, 51.0591219],
          [6.9044177, 51.0617828],
          [6.9018231, 51.0631325],
          [6.8983179, 51.0647076],
          [6.892668, 51.0669049],
          [6.8889765, 51.0681042],
          [6.8862472, 51.0688359],
          [6.8824562, 51.0697037],
          [6.8794662, 51.0702273],
          [6.8758235, 51.0708151],
          [6.8721728, 51.0713839],
          [6.8658556, 51.0724399],
          [6.8633698, 51.0729141],
          [6.8613671, 51.0735371],
          [6.8598827, 51.074096],
          [6.8589436, 51.0744217],
          [6.856736, 51.0758203],
          [6.8558745, 51.0766268],
          [6.8548807, 51.0775619],
          [6.8541358, 51.0785489],
          [6.8535423, 51.0796192],
          [6.8531989, 51.0805094],
          [6.8527866, 51.0822471],
          [6.8527374, 51.0831295],
          [6.8528114, 51.0840733],
          [6.8531888, 51.0848875]
        ]
      }
    }
  ]
}
